QIANFAN-105             
1 66047U 25233Q   25319.81329280  .00000505  00000+0  22401-3 0  9992
2 66047  89.0047  65.1563 0020438 116.8502 243.4782 14.21465579  4209
QIANFAN-106             
1 66048U 25233R   25319.74300772  .00001063  00000+0  48568-3 0  9992
2 66048  88.9952  65.1425 0017957 124.4344 235.8547 14.20750195  4193
QIANFAN-107             
1 66049U 25233S   25319.74178127  .00001110  00000+0  49715-3 0  9998
2 66049  88.9977  65.1466 0017588 112.3496 247.9561 14.21837904  4195
QIANFAN-108             
1 66050U 25233T   25319.74308631  .00000743  00000+0  33491-3 0  9990
2 66050  88.9957  65.1456 0016370 123.0906 237.1859 14.21160734  4198
